TYVAK-182A              
1 48271U 21034D   26068.71131789  .00007163  00000+0  50673-3 0  9991
2 48271  97.5843 129.3711 0004862 316.5650  43.5193 15.05150420264864
STARLINK-34927          
1 65196U 25175Y   26068.62179095  .00000188  00000+0  17277-4 0  9992
2 65196  97.6019 302.6445 0001915  90.2716 269.8730 15.05645633 32633
