[{"OBJECT_NAME":"TYVAK-182A","OBJECT_ID":"2021-034D","EPOCH":"2026-03-09T17:04:17.866560","MEAN_MOTION":15.0515042,"ECCENTRICITY":0.00048625,"INCLINATION":97.5843,"RA_OF_ASC_NODE":129.3711,"ARG_OF_PERICENTER":316.565,"MEAN_ANOMALY":43.5193,"EPHEMERIS_TYPE":0,"CLASSIFICATION_TYPE":"U","NORAD_CAT_ID":48271,"ELEMENT_SET_NO":999,"REV_AT_EPOCH":26486,"BSTAR":0.00050672592,"MEAN_MOTION_DOT":7.163e-5,"MEAN_MOTION_DDOT":0},{"OBJECT_NAME":"STARLINK-34927","OBJECT_ID":"2025-175Y","EPOCH":"2026-03-09T14:55:22.738080","MEAN_MOTION":15.05645633,"ECCENTRICITY":0.0001915,"INCLINATION":97.6019,"RA_OF_ASC_NODE":302.6445,"ARG_OF_PERICENTER":90.2716,"MEAN_ANOMALY":269.873,"EPHEMERIS_TYPE":0,"CLASSIFICATION_TYPE":"U","NORAD_CAT_ID":65196,"ELEMENT_SET_NO":999,"REV_AT_EPOCH":3263,"BSTAR":1.7277e-5,"MEAN_MOTION_DOT":1.88e-6,"MEAN_MOTION_DDOT":0}]
